[
    {
        "Altitude(m)": 607911.0014811319,
        "Argument of Periapsis(deg)": 0.0,
        "Eccentricity": 0.0,
        "Inclination(deg)": 60.0,
        "Latitude(deg)": -14.292901620996428,
        "Longitude(deg)": 23.442677662999856,
        "Mean Anomaly(deg)": -163.63640000000007,
        "RAAN(deg)": 295.00000000000006,
        "Satellite Name": "Test1 1310",
        "Satellite Number": 1310,
        "Semi-Major Axis(m)": 6980739.136638005,
        "Time(s)": 0
    },
    {
        "Altitude(m)": 608060.234707689,
        "Argument of Periapsis(deg)": 0.00010418945913296404,
        "Eccentricity": 0.0,
        "Inclination(deg)": 60.0,
        "Latitude(deg)": -14.826562422969765,
        "Longitude(deg)": 23.731288222900364,
        "Mean Anomaly(deg)": -163.01629385453822,
        "RAAN(deg)": 294.99957995086027,
        "Satellite Name": "Test1 1310",
        "Satellite Number": 1310,
        "Semi-Major Axis(m)": 6980739.136638005,
        "Time(s)": 10
    }
]